CCSDS_OMM_VERS = 2.0
CREATION_DATE  = 
ORIGINATOR     = 

OBJECT_NAME    = KUIPER-00213
OBJECT_ID      = 2026-030P
CENTER_NAME    = EARTH
REF_FRAME      = TEME
TIME_SYSTEM    = UTC
MEAN_ELEMENT_THEORY = SGP/SGP4

EPOCH          = 2026-03-12T12:59:03.932736
MEAN_MOTION    = 15.32696106
ECCENTRICITY   = .00152321
INCLINATION    = 51.8806
RA_OF_ASC_NODE = 205.9154
ARG_OF_PERICENTER = 73.8473
MEAN_ANOMALY   = 286.4188

EPHEMERIS_TYPE = 0
CLASSIFICATION_TYPE = U
NORAD_CAT_ID   = 67777
ELEMENT_SET_NO = 999
REV_AT_EPOCH   = 552
BSTAR          = .82974482E-3
MEAN_MOTION_DOT = .26399E-3
MEAN_MOTION_DDOT = 0

CCSDS_OMM_VERS = 2.0
CREATION_DATE  = 
ORIGINATOR     = 

OBJECT_NAME    = KUIPER-00214
OBJECT_ID      = 2026-030Q
CENTER_NAME    = EARTH
REF_FRAME      = TEME
TIME_SYSTEM    = UTC
MEAN_ELEMENT_THEORY = SGP/SGP4

EPOCH          = 2026-03-12T12:59:17.957184
MEAN_MOTION    = 15.36941474
ECCENTRICITY   = .00005709
INCLINATION    = 51.8825
RA_OF_ASC_NODE = 205.1969
ARG_OF_PERICENTER = 343.6014
MEAN_ANOMALY   = 16.4954

EPHEMERIS_TYPE = 0
CLASSIFICATION_TYPE = U
NORAD_CAT_ID   = 67778
ELEMENT_SET_NO = 999
REV_AT_EPOCH   = 553
BSTAR          = .10679551E-2
MEAN_MOTION_DOT = .38996E-3
MEAN_MOTION_DDOT = 0

CCSDS_OMM_VERS = 2.0
CREATION_DATE  = 
ORIGINATOR     = 

OBJECT_NAME    = KUIPER-00215
OBJECT_ID      = 2026-030R
CENTER_NAME    = EARTH
REF_FRAME      = TEME
TIME_SYSTEM    = UTC
MEAN_ELEMENT_THEORY = SGP/SGP4

EPOCH          = 2026-03-11T17:39:47.569536
MEAN_MOTION    = 15.34588543
ECCENTRICITY   = .00105203
INCLINATION    = 51.8834
RA_OF_ASC_NODE = 209.5383
ARG_OF_PERICENTER = 66.2297
MEAN_ANOMALY   = 293.9791

EPHEMERIS_TYPE = 0
CLASSIFICATION_TYPE = U
NORAD_CAT_ID   = 67779
ELEMENT_SET_NO = 999
REV_AT_EPOCH   = 540
BSTAR          = .9528564E-3
MEAN_MOTION_DOT = .32228E-3
MEAN_MOTION_DDOT = 0

CCSDS_OMM_VERS = 2.0
CREATION_DATE  = 
ORIGINATOR     = 

OBJECT_NAME    = KUIPER-00218
OBJECT_ID      = 2026-030S
CENTER_NAME    = EARTH
REF_FRAME      = TEME
TIME_SYSTEM    = UTC
MEAN_ELEMENT_THEORY = SGP/SGP4

EPOCH          = 2026-03-12T15:13:59.687904
MEAN_MOTION    = 15.35355842
ECCENTRICITY   = .00071026
INCLINATION    = 51.8841
RA_OF_ASC_NODE = 205.0636
ARG_OF_PERICENTER = 58.4826
MEAN_ANOMALY   = 301.6853

EPHEMERIS_TYPE = 0
CLASSIFICATION_TYPE = U
NORAD_CAT_ID   = 67780
ELEMENT_SET_NO = 999
REV_AT_EPOCH   = 554
BSTAR          = .95182111E-3
MEAN_MOTION_DOT = .3297E-3
MEAN_MOTION_DDOT = 0

CCSDS_OMM_VERS = 2.0
CREATION_DATE  = 
ORIGINATOR     = 

OBJECT_NAME    = KUIPER-00220
OBJECT_ID      = 2026-030T
CENTER_NAME    = EARTH
REF_FRAME      = TEME
TIME_SYSTEM    = UTC
MEAN_ELEMENT_THEORY = SGP/SGP4

EPOCH          = 2026-03-12T13:51:52.010784
MEAN_MOTION    = 15.34940236
ECCENTRICITY   = .00085358
INCLINATION    = 51.8815
RA_OF_ASC_NODE = 205.4205
ARG_OF_PERICENTER = 64.1453
MEAN_ANOMALY   = 296.0412

EPHEMERIS_TYPE = 0
CLASSIFICATION_TYPE = U
NORAD_CAT_ID   = 67781
ELEMENT_SET_NO = 999
REV_AT_EPOCH   = 553
BSTAR          = .10620906E-2
MEAN_MOTION_DOT = .36374E-3
MEAN_MOTION_DDOT = 0

CCSDS_OMM_VERS = 2.0
CREATION_DATE  = 
ORIGINATOR     = 

OBJECT_NAME    = KUIPER-00222
OBJECT_ID      = 2026-030U
CENTER_NAME    = EARTH
REF_FRAME      = TEME
TIME_SYSTEM    = UTC
MEAN_ELEMENT_THEORY = SGP/SGP4

EPOCH          = 2026-03-12T13:06:33.177312
MEAN_MOTION    = 15.32214946
ECCENTRICITY   = .00171713
INCLINATION    = 51.8795
RA_OF_ASC_NODE = 205.9488
ARG_OF_PERICENTER = 75.8251
MEAN_ANOMALY   = 284.4640

EPHEMERIS_TYPE = 0
CLASSIFICATION_TYPE = U
NORAD_CAT_ID   = 67782
ELEMENT_SET_NO = 999
REV_AT_EPOCH   = 552
BSTAR          = .14041146E-2
MEAN_MOTION_DOT = .44406E-3
MEAN_MOTION_DDOT = 0

CCSDS_OMM_VERS = 2.0
CREATION_DATE  = 
ORIGINATOR     = 

OBJECT_NAME    = KUIPER-00223
OBJECT_ID      = 2026-030V
CENTER_NAME    = EARTH
REF_FRAME      = TEME
TIME_SYSTEM    = UTC
MEAN_ELEMENT_THEORY = SGP/SGP4

EPOCH          = 2026-03-12T14:05:59.943840
MEAN_MOTION    = 15.34253465
ECCENTRICITY   = .00123955
INCLINATION    = 51.8826
RA_OF_ASC_NODE = 205.4858
ARG_OF_PERICENTER = 72.7412
MEAN_ANOMALY   = 287.4929

EPHEMERIS_TYPE = 0
CLASSIFICATION_TYPE = U
NORAD_CAT_ID   = 67783
ELEMENT_SET_NO = 999
REV_AT_EPOCH   = 553
BSTAR          = .93532208E-3
MEAN_MOTION_DOT = .31307E-3
MEAN_MOTION_DDOT = 0

CCSDS_OMM_VERS = 2.0
CREATION_DATE  = 
ORIGINATOR     = 

OBJECT_NAME    = KUIPER-00225
OBJECT_ID      = 2026-030W
CENTER_NAME    = EARTH
REF_FRAME      = TEME
TIME_SYSTEM    = UTC
MEAN_ELEMENT_THEORY = SGP/SGP4

EPOCH          = 2026-03-12T13:22:25.443552
MEAN_MOTION    = 15.36191088
ECCENTRICITY   = .00045301
INCLINATION    = 51.8819
RA_OF_ASC_NODE = 205.2914
ARG_OF_PERICENTER = 37.9779
MEAN_ANOMALY   = 322.1526

EPHEMERIS_TYPE = 0
CLASSIFICATION_TYPE = U
NORAD_CAT_ID   = 67784
ELEMENT_SET_NO = 999
REV_AT_EPOCH   = 553
BSTAR          = .20283742E-2
MEAN_MOTION_DOT = .72977E-3
MEAN_MOTION_DDOT = 0

CCSDS_OMM_VERS = 2.0
CREATION_DATE  = 
ORIGINATOR     = 

OBJECT_NAME    = KUIPER-00226
OBJECT_ID      = 2026-030X
CENTER_NAME    = EARTH
REF_FRAME      = TEME
TIME_SYSTEM    = UTC
MEAN_ELEMENT_THEORY = SGP/SGP4

EPOCH          = 2026-03-12T13:32:50.116416
MEAN_MOTION    = 15.30632419
ECCENTRICITY   = .00192458
INCLINATION    = 51.8825
RA_OF_ASC_NODE = 206.0652
ARG_OF_PERICENTER = 81.1805
MEAN_ANOMALY   = 279.1358

EPHEMERIS_TYPE = 0
CLASSIFICATION_TYPE = U
NORAD_CAT_ID   = 67785
ELEMENT_SET_NO = 999
REV_AT_EPOCH   = 552
BSTAR          = .10051879E-2
MEAN_MOTION_DOT = .30119E-3
MEAN_MOTION_DDOT = 0

CCSDS_OMM_VERS = 2.0
CREATION_DATE  = 
ORIGINATOR     = 

OBJECT_NAME    = KUIPER-00259
OBJECT_ID      = 2026-030Y
CENTER_NAME    = EARTH
REF_FRAME      = TEME
TIME_SYSTEM    = UTC
MEAN_ELEMENT_THEORY = SGP/SGP4

EPOCH          = 2026-03-12T13:43:55.115616
MEAN_MOTION    = 15.35225725
ECCENTRICITY   = .00086137
INCLINATION    = 51.8820
RA_OF_ASC_NODE = 205.3866
ARG_OF_PERICENTER = 56.2109
MEAN_ANOMALY   = 303.9696

EPHEMERIS_TYPE = 0
CLASSIFICATION_TYPE = U
NORAD_CAT_ID   = 67786
ELEMENT_SET_NO = 999
REV_AT_EPOCH   = 553
BSTAR          = .94402103E-3
MEAN_MOTION_DOT = .3257E-3
MEAN_MOTION_DDOT = 0

CCSDS_OMM_VERS = 2.0
CREATION_DATE  = 
ORIGINATOR     = 

OBJECT_NAME    = KUIPER-00260
OBJECT_ID      = 2026-030Z
CENTER_NAME    = EARTH
REF_FRAME      = TEME
TIME_SYSTEM    = UTC
MEAN_ELEMENT_THEORY = SGP/SGP4

EPOCH          = 2026-03-12T13:07:33.019680
MEAN_MOTION    = 15.36668391
ECCENTRICITY   = .00016138
INCLINATION    = 51.8809
RA_OF_ASC_NODE = 205.2211
ARG_OF_PERICENTER = 49.9367
MEAN_ANOMALY   = 310.1760

EPHEMERIS_TYPE = 0
CLASSIFICATION_TYPE = U
NORAD_CAT_ID   = 67787
ELEMENT_SET_NO = 999
REV_AT_EPOCH   = 544
BSTAR          = .87987765E-3
MEAN_MOTION_DOT = .31746E-3
MEAN_MOTION_DDOT = 0

CCSDS_OMM_VERS = 2.0
CREATION_DATE  = 
ORIGINATOR     = 

OBJECT_NAME    = KUIPER-00262
OBJECT_ID      = 2026-030AA
CENTER_NAME    = EARTH
REF_FRAME      = TEME
TIME_SYSTEM    = UTC
MEAN_ELEMENT_THEORY = SGP/SGP4

EPOCH          = 2026-03-12T13:01:04.952352
MEAN_MOTION    = 15.36870431
ECCENTRICITY   = .00007097
INCLINATION    = 51.8809
RA_OF_ASC_NODE = 205.1896
ARG_OF_PERICENTER = 107.2965
MEAN_ANOMALY   = 252.8099

EPHEMERIS_TYPE = 0
CLASSIFICATION_TYPE = U
NORAD_CAT_ID   = 67788
ELEMENT_SET_NO = 999
REV_AT_EPOCH   = 553
BSTAR          = .94943963E-3
MEAN_MOTION_DOT = .34525E-3
MEAN_MOTION_DDOT = 0

