KUIPER-00213            
1 67777U 26030P   26071.54101774  .00026399  00000+0  82974-3 0  9991
2 67777  51.8806 205.9154 0015232  73.8473 286.4188 15.32696106  5523
KUIPER-00214            
1 67778U 26030Q   26071.54118006  .00038996  00000+0  10680-2 0  9998
2 67778  51.8825 205.1969 0000570 343.6014  16.4954 15.36941474  5537
KUIPER-00215            
1 67779U 26030R   26070.73596724  .00032228  00000+0  95286-3 0  9994
2 67779  51.8834 209.5383 0010520  66.2297 293.9791 15.34588543  5402
KUIPER-00218            
1 67780U 26030S   26071.63471861  .00032970  00000+0  95182-3 0  9999
2 67780  51.8841 205.0636 0007102  58.4826 301.6853 15.35355842  5543
KUIPER-00220            
1 67781U 26030T   26071.57768531  .00036374  00000+0  10621-2 0  9992
2 67781  51.8815 205.4205 0008535  64.1453 296.0412 15.34940236  5535
KUIPER-00222            
1 67782U 26030U   26071.54621733  .00044406  00000+0  14041-2 0  9997
2 67782  51.8795 205.9488 0017171  75.8251 284.4640 15.32214946  5525
KUIPER-00223            
1 67783U 26030V   26071.58749935  .00031307  00000+0  93532-3 0  9996
2 67783  51.8826 205.4858 0012395  72.7412 287.4929 15.34253465  5530
KUIPER-00225            
1 67784U 26030W   26071.55723893  .00072977  00000+0  20284-2 0  9990
2 67784  51.8819 205.2914 0004530  37.9779 322.1526 15.36191088  5539
KUIPER-00226            
1 67785U 26030X   26071.56446894  .00030119  00000+0  10052-2 0  9999
2 67785  51.8825 206.0652 0019245  81.1805 279.1358 15.30632419  5520
KUIPER-00259            
1 67786U 26030Y   26071.57216569  .00032570  00000+0  94402-3 0  9990
2 67786  51.8820 205.3866 0008613  56.2109 303.9696 15.35225725  5537
KUIPER-00260            
1 67787U 26030Z   26071.54690995  .00031746  00000+0  87988-3 0  9992
2 67787  51.8809 205.2211 0001613  49.9367 310.1760 15.36668391  5449
KUIPER-00262            
1 67788U 26030AA  26071.54241843  .00034525  00000+0  94944-3 0  9995
2 67788  51.8809 205.1896 0000709 107.2965 252.8099 15.36870431  5532
